NORAD_CAT_ID,OBJECT_NAME,OBJECT_TYPE,EPOCH,MEAN_MOTION,ECCENTRICITY,INCLINATION,RA_OF_ASC_NODE,ARG_OF_PERICENTER,MEAN_ANOMALY,BSTAR,MEAN_MOTION_DOT,MEAN_MOTION_DDOT,TLE_LINE0,TLE_LINE1,TLE_LINE2,SEMIMAJOR_AXIS,PERIOD,APOGEE,PERIGEE,DECAYED
51988.0,STARLINK-3640,PAYLOAD,2022-10-29 20:44:02,15.08843029,0.0001720999999999,53.2183,146.5693,53.2827,306.8323,-3.5691e-05,-8.56e-06,0.0,0 STARLINK-3640,1 51988U 22025AJ  22302.86391411 -.00000856  00000-0 -35691-4 0  9993,2 51988  53.2183 146.5693 0001721  53.2827 306.8323 15.08843029 35853,6917.871,95.437,540.927,538.5459999999998,0.0
51988.0,STARLINK-3640,PAYLOAD,2022-10-30 01:30:11,15.08847469,0.0001705,53.2182,145.6772,56.4042,303.7112,-5.9497e-05,-1.235e-05,0.0,0 STARLINK-3640,1 51988U 22025AJ  22303.06263076 -.00001235  00000-0 -59497-4 0  9993,2 51988  53.2182 145.6772 0001705  56.4042 303.7112 15.08847469 35883,6917.858,95.437,540.9019999999998,538.543,0.0
51988.0,STARLINK-3640,PAYLOAD,2022-10-30 15:48:39,15.08845135,0.0001633,53.2183,143.0008,54.9089,305.2056,-2.4022e-05,-6.7e-06,0.0,0 STARLINK-3640,1 51988U 22025AJ  22303.65878864 -.00000670  00000-0 -24022-4 0  9993,2 51988  53.2183 143.0008 0001633  54.9089 305.2056 15.08845135 35974,6917.865,95.437,540.859,538.6,0.0
51988.0,STARLINK-3640,PAYLOAD,2022-10-31 06:07:07,15.08838302,0.0001422,53.2185,140.3244,57.3217,302.7912,-1.1607e-05,-4.73e-06,0.0,0 STARLINK-3640,1 51988U 22025AJ  22304.25495204 -.00000473  00000-0 -11607-4 0  9999,2 51988  53.2185 140.3244 0001422  57.3217 302.7912 15.08838302 37179,6917.886,95.438,540.734,538.7669999999998,0.0
51988.0,STARLINK-3640,PAYLOAD,2022-10-31 23:36:22,15.08839909,0.0001595999999999,53.2184,137.0535,51.1825,308.9309,0.00011613,1.561e-05,0.0,0 STARLINK-3640,1 51988U 22025AJ  22304.98358936  .00001561  00000-0  11613-3 0  9992,2 51988  53.2184 137.0535 0001596  51.1825 308.9309 15.08839909 36174,6917.880999999999,95.438,540.85,538.6419999999998,0.0
51988.0,STARLINK-3640,PAYLOAD,2022-11-01 15:30:14,15.08833172,0.0001593,53.2187,134.0798,52.6006,307.5131,8.491e-05,1.063e-05,0.0,0 STARLINK-3640,1 51988U 22025AJ  22305.64599586  .00001063  00000-0  84910-4 0  9992,2 51988  53.2187 134.0798 0001593  52.6006 307.5131 15.08833172 36274,6917.901,95.438,540.868,538.664,0.0
51988.0,STARLINK-3640,PAYLOAD,2022-11-02 12:10:14,15.08838996,0.0001663,53.2188,130.2143,54.5938,305.5209,9.0874e-05,1.158e-05,0.0,0 STARLINK-3640,1 51988U 22025AJ  22306.50711472  .00001158  00000-0  90874-4 0  9999,2 51988  53.2188 130.2143 0001663  54.5938 305.5209 15.08838996 36408,6917.8830000000025,95.438,540.899,538.5980000000002,0.0
51988.0,STARLINK-3640,PAYLOAD,2022-11-02 18:31:47,15.08834667,0.0001678,53.2189,129.025,54.225,305.8898,-1.7891e-05,-5.73e-06,0.0,0 STARLINK-3640,1 51988U 22025AJ  22306.77208041 -.00000573  00000-0 -17891-4 0  9991,2 51988  53.2189 129.0250 0001678  54.2250 305.8898 15.08834667 37559,6917.897,95.438,540.923,538.601,0.0
51988.0,STARLINK-3640,PAYLOAD,2022-11-02 20:07:10,15.08832884,0.0001720999999999,53.2189,128.7277,55.1207,304.9947,2.5091e-05,1.11e-06,0.0,0 STARLINK-3640,1 51988U 22025AJ  22306.83832026  .00000111  00000-0  25091-4 0  9991,2 51988  53.2189 128.7277 0001721  55.1207 304.9947 15.08832884 36457,6917.901999999999,95.438,540.9580000000002,538.577,0.0
51988.0,STARLINK-3640,PAYLOAD,2022-11-03 12:01:02,15.08838171,0.0001704,53.2184,125.7537,54.5312,305.5839,6.0729e-05,6.79e-06,0.0,0 STARLINK-3640,1 51988U 22025AJ  22307.50071787  .00000679  00000-0  60729-4 0  9991,2 51988  53.2184 125.7537 0001704  54.5312 305.5839 15.08838171 36552,6917.886,95.438,540.93,538.572,0.0
51988.0,STARLINK-3640,PAYLOAD,2022-11-03 15:11:48,15.08837787,0.0001739,53.2184,125.1591,54.7471,305.3683,0.00012154,1.647e-05,0.0,0 STARLINK-3640,1 51988U 22025AJ  22307.63319608  .00001647  00000-0  12154-3 0  9996,2 51988  53.2184 125.1591 0001739  54.7471 305.3683 15.08837787 37684,6917.887,95.438,540.955,538.549,0.0
51988.0,STARLINK-3640,PAYLOAD,2022-11-03 19:57:57,15.08843991,0.0001733,53.2183,124.267,55.0254,305.0901,9.8368e-05,1.278e-05,0.0,0 STARLINK-3640,1 51988U 22025AJ  22307.83191319  .00001278  00000-0  98368-4 0  9997,2 51988  53.2183 124.2670 0001733  55.0254 305.0901 15.08843991 36603,6917.868,95.437,540.932,538.534,0.0
51988.0,STARLINK-3640,PAYLOAD,2022-11-03 23:08:44,15.08827272,0.0002068,53.2188,123.6726,50.945,309.1726,-4.2044e-05,-9.57e-06,0.0,0 STARLINK-3640,1 51988U 22025AJ  22307.96440885 -.00000957  00000-0 -42044-4 0  9991,2 51988  53.2188 123.6726 0002068  50.9450 309.1726 15.08827272 37736,6917.919,95.438,541.215,538.354,0.0
51988.0,STARLINK-3640,PAYLOAD,2022-11-04 05:30:17,15.08825751,0.0002039,53.2187,122.4833,51.5094,308.6081,-7.4773e-05,-1.478e-05,0.0,0 STARLINK-3640,1 51988U 22025AJ  22308.22937297 -.00001478  00000-0 -74773-4 0  9992,2 51988  53.2187 122.4833 0002039  51.5094 308.6081 15.08825751 36669,6917.924,95.438,541.2,538.378,0.0
51988.0,STARLINK-3640,PAYLOAD,2022-11-04 18:13:22,15.08833722,0.000176,53.2187,120.1043,51.6771,308.4379,3.0725e-05,2.01e-06,0.0,0 STARLINK-3640,1 51988U 22025AJ  22308.75928783  .00000201  00000-0  30725-4 0  9990,2 51988  53.2187 120.1043 0001760  51.6771 308.4379 15.08833722 37857,6917.9,95.438,540.982,538.547,0.0
51988.0,STARLINK-3640,PAYLOAD,2022-11-05 11:42:36,15.08840513,0.0001696999999999,53.2189,116.8329,50.8693,309.2449,0.00010436,1.373e-05,0.0,0 STARLINK-3640,1 51988U 22025AJ  22309.48792388  .00001373  00000-0  10436-3 0  9998,2 51988  53.2189 116.8329 0001697  50.8693 309.2449 15.08840513 36853,6917.879,95.438,540.918,538.57,0.0
51988.0,STARLINK-3640,PAYLOAD,2022-11-05 13:17:59,15.08841906,0.0001582,53.219,116.5358,47.5368,312.5758,0.00012312,1.672e-05,0.0,0 STARLINK-3640,1 51988U 22025AJ  22309.55416244  .00001672  00000-0  12312-3 0  9997,2 51988  53.2190 116.5358 0001582  47.5368 312.5758 15.08841906 37970,6917.875,95.437,540.8340000000002,538.645,0.0
51988.0,STARLINK-3640,PAYLOAD,2022-11-06 11:33:23,15.08835699,0.0002025,53.219,112.374,52.3757,307.7418,0.00020056,2.905e-05,0.0,0 STARLINK-3640,1 51988U 22025AJ  22310.48152659  .00002905  00000-0  20056-3 0  9992,2 51988  53.2190 112.3740 0002025  52.3757 307.7418 15.08835699 38116,6917.894,95.438,541.159,538.3580000000002,0.0
51988.0,STARLINK-3640,PAYLOAD,2022-11-07 17:45:43,15.08844362,0.0001931,53.2192,106.7243,52.1423,307.9743,6.2572e-06,-1.89e-06,0.0,0 STARLINK-3640,1 51988U 22025AJ  22311.74008399 -.00000189  00000-0  62572-5 0  9997,2 51988  53.2192 106.7243 0001931  52.1423 307.9743 15.08844362 38307,6917.8669999999975,95.437,541.068,538.396,0.0
51988.0,STARLINK-3640,PAYLOAD,2022-11-07 19:21:06,15.08844896,0.0001933,53.2197,106.4274,54.6285,305.4888,-5.809e-06,-3.81e-06,0.0,0 STARLINK-3640,1 51988U 22025AJ  22311.80632375 -.00000381  00000-0 -58090-5 0  9996,2 51988  53.2197 106.4274 0001933  54.6285 305.4888 15.08844896 37201,6917.865,95.437,541.068,538.393,0.0
51988.0,STARLINK-3640,PAYLOAD,2022-11-08 03:18:01,15.08851893,0.0002099,53.2202,104.9407,54.0326,306.0861,0.00011518,1.546e-05,0.0,0 STARLINK-3640,1 51988U 22025AJ  22312.13751550  .00001546  00000-0  11518-3 0  9994,2 51988  53.2202 104.9407 0002099  54.0326 306.0861 15.08851893 38364,6917.844,95.437,541.161,538.257,0.0
51988.0,STARLINK-3640,PAYLOAD,2022-11-08 19:11:53,15.08838627,0.0001919,53.2203,101.9674,55.3571,304.7602,0.00021188,3.085e-05,0.0,0 STARLINK-3640,1 51988U 22025AJ  22312.79991958  .00003085  00000-0  21188-3 0  9998,2 51988  53.2203 101.9674 0001919  55.3571 304.7602 15.08838627 37350,6917.885,95.438,541.077,538.422,0.0
51988.0,STARLINK-3640,PAYLOAD,2022-11-09 09:30:19,15.08858546,0.0001854,53.2191,99.2903,52.2342,307.8818,0.00020222,2.933e-05,0.0,0 STARLINK-3640,1 51988U 22025AJ  22313.39606390  .00002933  00000-0  20222-3 0  9997,2 51988  53.2191  99.2903 0001854  52.2342 307.8818 15.08858546 38558,6917.824000000001,95.436,540.971,538.406,0.0
51988.0,STARLINK-3640,PAYLOAD,2022-11-09 12:41:06,15.08850819,0.000152,53.2185,98.6931,52.9077,307.2054,0.00023364,3.433e-05,0.0,0 STARLINK-3640,1 51988U 22025AJ  22313.52854713  .00003433  00000-0  23364-3 0  9992,2 51988  53.2185  98.6931 0001520  52.9077 307.2054 15.08850819 37467,6917.847,95.437,540.764,538.661,0.0
51988.0,STARLINK-3640,PAYLOAD,2022-11-09 19:02:39,15.08840819,0.0001789,53.2181,97.5042,38.052,322.0599,-1.9508e-05,-5.99e-06,0.0,0 STARLINK-3640,1 51988U 22025AJ  22313.79351159 -.00000599  00000-0 -19508-4 0  9995,2 51988  53.2181  97.5042 0001789  38.0520 322.0599 15.08840819 38615,6917.878000000002,95.438,540.98,538.505,0.0
51988.0,STARLINK-3640,PAYLOAD,2022-11-10 12:31:54,15.08822053,0.0001694,53.2179,94.2328,32.0923,328.0172,0.0001789,2.559e-05,0.0,0 STARLINK-3640,1 51988U 22025AJ  22314.52216373  .00002559  00000-0  17890-3 0  9992,2 51988  53.2179  94.2328 0001694  32.0923 328.0172 15.08822053 37611,6917.935,95.439,540.972,538.628,0.0
51988.0,STARLINK-3640,PAYLOAD,2022-11-10 18:53:27,15.0883888,0.0001874,53.2195,93.0456,43.4256,316.6883,-5.3082e-05,-1.133e-05,0.0,0 STARLINK-3640,1 51988U 22025AJ  22314.78711830 -.00001133  00000-0 -53082-4 0  9991,2 51988  53.2195  93.0456 0001874  43.4256 316.6883 15.08838880 37654,6917.884,95.438,541.045,538.452,0.0
51988.0,STARLINK-3640,PAYLOAD,2022-11-10 20:28:50,15.08840044,0.0001885,53.2196,92.7483,39.7202,320.3928,-4.219e-05,-9.6e-06,0.0,0 STARLINK-3640,1 51988U 22025AJ  22314.85335730 -.00000960  00000-0 -42190-4 0  9995,2 51988  53.2196  92.7483 0001885  39.7202 320.3928 15.08840044 38773,6917.88,95.438,541.049,538.441,0.0
51988.0,STARLINK-3640,PAYLOAD,2022-11-11 09:11:55,15.08827434,0.0002058,53.2196,90.3697,44.81,315.3058,3.3844e-05,2.5e-06,0.0,0 STARLINK-3640,1 51988U 22025AJ  22315.38328383  .00000250  00000-0  33844-4 0  9996,2 51988  53.2196  90.3697 0002058  44.8100 315.3058 15.08827434 38856,6917.919,95.438,541.2080000000002,538.36,0.0
